KUIPER-00104            
1 65142U 25171L   25277.65673840  .00053253  00000+0  14491-2 0  9994
2 65142  51.8734 143.5253 0003078 336.2060  23.8784 15.36997035  9569
KUIPER-00105            
1 65143U 25171M   25277.83334491 -.00694350  00000+0 -26664-1 0  9996
2 65143  51.8791 142.7769 0007117 313.0037 228.5074 15.28477598  2838
KUIPER-00106            
1 65144U 25171N   25277.83334491 -.00739588  00000+0 -39581-1 0  9992
2 65144  51.8918 144.0676 0006042 296.8170 302.3965 15.17096779  5002
KUIPER-00107            
1 65145U 25171P   25277.65253637  .00063122  00000+0  17067-2 0  9993
2 65145  51.8741 143.4972 0004014 335.1544  24.9249 15.37117301  9573
KUIPER-00108            
1 65146U 25171Q   25277.66691644  .00049032  00000+0  13458-2 0  9993
2 65146  51.8762 143.5920 0004613 340.2802  19.8005 15.36760392  9576
KUIPER-00109            
1 65147U 25171R   25277.64547625  .00051701  00000+0  13912-2 0  9992
2 65147  51.8723 143.4443 0004200 310.9389  49.1234 15.37354081  9563
KUIPER-00110            
1 65148U 25171S   25277.83334491 -.00813125  00000+0 -37118-1 0  9990
2 65148  51.8814 143.3505 0008151 319.6118 291.3475 15.22748590  5704
KUIPER-00111            
1 65149U 25171T   25277.83334491 -.00881022  00000+0 -54549-1 0  9999
2 65149  51.8875 144.9062 0006117 331.4855 279.3903 15.11998139  3138
