<?xml version="1.0" encoding="UTF-8"?>
<ndm xmlns:xsi="http://www.w3.org/2001/XMLSchema-instance" xsi:noNamespaceSchemaLocation="https://sanaregistry.org/r/ndmxml_unqualified/ndmxml-2.0.0-master-2.0.xsd">
<omm id="CCSDS_OMM_VERS" version="2.0">
<header><CREATION_DATE/><ORIGINATOR/></header><body><segment><metadata><OBJECT_NAME>KUIPER-00104</OBJECT_NAME><OBJECT_ID>2025-171L</OBJECT_ID><CENTER_NAME>EARTH</CENTER_NAME><REF_FRAME>TEME</REF_FRAME><TIME_SYSTEM>UTC</TIME_SYSTEM><MEAN_ELEMENT_THEORY>SGP4</MEAN_ELEMENT_THEORY></metadata><data><meanElements><EPOCH>2025-10-04T15:45:42.197760</EPOCH><MEAN_MOTION>15.36997035</MEAN_MOTION><ECCENTRICITY>.0003078</ECCENTRICITY><INCLINATION>51.8734</INCLINATION><RA_OF_ASC_NODE>143.5253</RA_OF_ASC_NODE><ARG_OF_PERICENTER>336.2060</ARG_OF_PERICENTER><MEAN_ANOMALY>23.8784</MEAN_ANOMALY></meanElements><tleParameters><EPHEMERIS_TYPE>0</EPHEMERIS_TYPE><CLASSIFICATION_TYPE>U</CLASSIFICATION_TYPE><NORAD_CAT_ID>65142</NORAD_CAT_ID><ELEMENT_SET_NO>999</ELEMENT_SET_NO><REV_AT_EPOCH>956</REV_AT_EPOCH><BSTAR>.14491E-2</BSTAR><MEAN_MOTION_DOT>.53253E-3</MEAN_MOTION_DOT><MEAN_MOTION_DDOT>0</MEAN_MOTION_DDOT></tleParameters></data></segment></body></omm>
<omm id="CCSDS_OMM_VERS" version="2.0">
<header><CREATION_DATE/><ORIGINATOR/></header><body><segment><metadata><OBJECT_NAME>KUIPER-00105</OBJECT_NAME><OBJECT_ID>2025-171M</OBJECT_ID><CENTER_NAME>EARTH</CENTER_NAME><REF_FRAME>TEME</REF_FRAME><TIME_SYSTEM>UTC</TIME_SYSTEM><MEAN_ELEMENT_THEORY>SGP4</MEAN_ELEMENT_THEORY></metadata><data><meanElements><EPOCH>2025-10-04T20:00:01.000224</EPOCH><MEAN_MOTION>15.28477598</MEAN_MOTION><ECCENTRICITY>.0007117</ECCENTRICITY><INCLINATION>51.8791</INCLINATION><RA_OF_ASC_NODE>142.7769</RA_OF_ASC_NODE><ARG_OF_PERICENTER>313.0037</ARG_OF_PERICENTER><MEAN_ANOMALY>228.5074</MEAN_ANOMALY></meanElements><tleParameters><EPHEMERIS_TYPE>0</EPHEMERIS_TYPE><CLASSIFICATION_TYPE>U</CLASSIFICATION_TYPE><NORAD_CAT_ID>65143</NORAD_CAT_ID><ELEMENT_SET_NO>999</ELEMENT_SET_NO><REV_AT_EPOCH>283</REV_AT_EPOCH><BSTAR>-.26664E-1</BSTAR><MEAN_MOTION_DOT>-.69435E-2</MEAN_MOTION_DOT><MEAN_MOTION_DDOT>0</MEAN_MOTION_DDOT></tleParameters></data></segment></body></omm>
<omm id="CCSDS_OMM_VERS" version="2.0">
<header><CREATION_DATE/><ORIGINATOR/></header><body><segment><metadata><OBJECT_NAME>KUIPER-00106</OBJECT_NAME><OBJECT_ID>2025-171N</OBJECT_ID><CENTER_NAME>EARTH</CENTER_NAME><REF_FRAME>TEME</REF_FRAME><TIME_SYSTEM>UTC</TIME_SYSTEM><MEAN_ELEMENT_THEORY>SGP4</MEAN_ELEMENT_THEORY></metadata><data><meanElements><EPOCH>2025-10-04T20:00:01.000224</EPOCH><MEAN_MOTION>15.17096779</MEAN_MOTION><ECCENTRICITY>.0006042</ECCENTRICITY><INCLINATION>51.8918</INCLINATION><RA_OF_ASC_NODE>144.0676</RA_OF_ASC_NODE><ARG_OF_PERICENTER>296.8170</ARG_OF_PERICENTER><MEAN_ANOMALY>302.3965</MEAN_ANOMALY></meanElements><tleParameters><EPHEMERIS_TYPE>0</EPHEMERIS_TYPE><CLASSIFICATION_TYPE>U</CLASSIFICATION_TYPE><NORAD_CAT_ID>65144</NORAD_CAT_ID><ELEMENT_SET_NO>999</ELEMENT_SET_NO><REV_AT_EPOCH>500</REV_AT_EPOCH><BSTAR>-.39581E-1</BSTAR><MEAN_MOTION_DOT>-.739588E-2</MEAN_MOTION_DOT><MEAN_MOTION_DDOT>0</MEAN_MOTION_DDOT></tleParameters></data></segment></body></omm>
<omm id="CCSDS_OMM_VERS" version="2.0">
<header><CREATION_DATE/><ORIGINATOR/></header><body><segment><metadata><OBJECT_NAME>KUIPER-00107</OBJECT_NAME><OBJECT_ID>2025-171P</OBJECT_ID><CENTER_NAME>EARTH</CENTER_NAME><REF_FRAME>TEME</REF_FRAME><TIME_SYSTEM>UTC</TIME_SYSTEM><MEAN_ELEMENT_THEORY>SGP4</MEAN_ELEMENT_THEORY></metadata><data><meanElements><EPOCH>2025-10-04T15:39:39.142368</EPOCH><MEAN_MOTION>15.37117301</MEAN_MOTION><ECCENTRICITY>.0004014</ECCENTRICITY><INCLINATION>51.8741</INCLINATION><RA_OF_ASC_NODE>143.4972</RA_OF_ASC_NODE><ARG_OF_PERICENTER>335.1544</ARG_OF_PERICENTER><MEAN_ANOMALY>24.9249</MEAN_ANOMALY></meanElements><tleParameters><EPHEMERIS_TYPE>0</EPHEMERIS_TYPE><CLASSIFICATION_TYPE>U</CLASSIFICATION_TYPE><NORAD_CAT_ID>65145</NORAD_CAT_ID><ELEMENT_SET_NO>999</ELEMENT_SET_NO><REV_AT_EPOCH>957</REV_AT_EPOCH><BSTAR>.17067E-2</BSTAR><MEAN_MOTION_DOT>.63122E-3</MEAN_MOTION_DOT><MEAN_MOTION_DDOT>0</MEAN_MOTION_DDOT></tleParameters></data></segment></body></omm>
<omm id="CCSDS_OMM_VERS" version="2.0">
<header><CREATION_DATE/><ORIGINATOR/></header><body><segment><metadata><OBJECT_NAME>KUIPER-00108</OBJECT_NAME><OBJECT_ID>2025-171Q</OBJECT_ID><CENTER_NAME>EARTH</CENTER_NAME><REF_FRAME>TEME</REF_FRAME><TIME_SYSTEM>UTC</TIME_SYSTEM><MEAN_ELEMENT_THEORY>SGP4</MEAN_ELEMENT_THEORY></metadata><data><meanElements><EPOCH>2025-10-04T16:00:21.580416</EPOCH><MEAN_MOTION>15.36760392</MEAN_MOTION><ECCENTRICITY>.0004613</ECCENTRICITY><INCLINATION>51.8762</INCLINATION><RA_OF_ASC_NODE>143.5920</RA_OF_ASC_NODE><ARG_OF_PERICENTER>340.2802</ARG_OF_PERICENTER><MEAN_ANOMALY>19.8005</MEAN_ANOMALY></meanElements><tleParameters><EPHEMERIS_TYPE>0</EPHEMERIS_TYPE><CLASSIFICATION_TYPE>U</CLASSIFICATION_TYPE><NORAD_CAT_ID>65146</NORAD_CAT_ID><ELEMENT_SET_NO>999</ELEMENT_SET_NO><REV_AT_EPOCH>957</REV_AT_EPOCH><BSTAR>.13458E-2</BSTAR><MEAN_MOTION_DOT>.49032E-3</MEAN_MOTION_DOT><MEAN_MOTION_DDOT>0</MEAN_MOTION_DDOT></tleParameters></data></segment></body></omm>
<omm id="CCSDS_OMM_VERS" version="2.0">
<header><CREATION_DATE/><ORIGINATOR/></header><body><segment><metadata><OBJECT_NAME>KUIPER-00109</OBJECT_NAME><OBJECT_ID>2025-171R</OBJECT_ID><CENTER_NAME>EARTH</CENTER_NAME><REF_FRAME>TEME</REF_FRAME><TIME_SYSTEM>UTC</TIME_SYSTEM><MEAN_ELEMENT_THEORY>SGP4</MEAN_ELEMENT_THEORY></metadata><data><meanElements><EPOCH>2025-10-04T15:29:29.148000</EPOCH><MEAN_MOTION>15.37354081</MEAN_MOTION><ECCENTRICITY>.00042</ECCENTRICITY><INCLINATION>51.8723</INCLINATION><RA_OF_ASC_NODE>143.4443</RA_OF_ASC_NODE><ARG_OF_PERICENTER>310.9389</ARG_OF_PERICENTER><MEAN_ANOMALY>49.1234</MEAN_ANOMALY></meanElements><tleParameters><EPHEMERIS_TYPE>0</EPHEMERIS_TYPE><CLASSIFICATION_TYPE>U</CLASSIFICATION_TYPE><NORAD_CAT_ID>65147</NORAD_CAT_ID><ELEMENT_SET_NO>999</ELEMENT_SET_NO><REV_AT_EPOCH>956</REV_AT_EPOCH><BSTAR>.13912E-2</BSTAR><MEAN_MOTION_DOT>.51701E-3</MEAN_MOTION_DOT><MEAN_MOTION_DDOT>0</MEAN_MOTION_DDOT></tleParameters></data></segment></body></omm>
<omm id="CCSDS_OMM_VERS" version="2.0">
<header><CREATION_DATE/><ORIGINATOR/></header><body><segment><metadata><OBJECT_NAME>KUIPER-00110</OBJECT_NAME><OBJECT_ID>2025-171S</OBJECT_ID><CENTER_NAME>EARTH</CENTER_NAME><REF_FRAME>TEME</REF_FRAME><TIME_SYSTEM>UTC</TIME_SYSTEM><MEAN_ELEMENT_THEORY>SGP4</MEAN_ELEMENT_THEORY></metadata><data><meanElements><EPOCH>2025-10-04T20:00:01.000224</EPOCH><MEAN_MOTION>15.22748590</MEAN_MOTION><ECCENTRICITY>.0008151</ECCENTRICITY><INCLINATION>51.8814</INCLINATION><RA_OF_ASC_NODE>143.3505</RA_OF_ASC_NODE><ARG_OF_PERICENTER>319.6118</ARG_OF_PERICENTER><MEAN_ANOMALY>291.3475</MEAN_ANOMALY></meanElements><tleParameters><EPHEMERIS_TYPE>0</EPHEMERIS_TYPE><CLASSIFICATION_TYPE>U</CLASSIFICATION_TYPE><NORAD_CAT_ID>65148</NORAD_CAT_ID><ELEMENT_SET_NO>999</ELEMENT_SET_NO><REV_AT_EPOCH>570</REV_AT_EPOCH><BSTAR>-.37118E-1</BSTAR><MEAN_MOTION_DOT>-.813125E-2</MEAN_MOTION_DOT><MEAN_MOTION_DDOT>0</MEAN_MOTION_DDOT></tleParameters></data></segment></body></omm>
<omm id="CCSDS_OMM_VERS" version="2.0">
<header><CREATION_DATE/><ORIGINATOR/></header><body><segment><metadata><OBJECT_NAME>KUIPER-00111</OBJECT_NAME><OBJECT_ID>2025-171T</OBJECT_ID><CENTER_NAME>EARTH</CENTER_NAME><REF_FRAME>TEME</REF_FRAME><TIME_SYSTEM>UTC</TIME_SYSTEM><MEAN_ELEMENT_THEORY>SGP4</MEAN_ELEMENT_THEORY></metadata><data><meanElements><EPOCH>2025-10-04T20:00:01.000224</EPOCH><MEAN_MOTION>15.11998139</MEAN_MOTION><ECCENTRICITY>.0006117</ECCENTRICITY><INCLINATION>51.8875</INCLINATION><RA_OF_ASC_NODE>144.9062</RA_OF_ASC_NODE><ARG_OF_PERICENTER>331.4855</ARG_OF_PERICENTER><MEAN_ANOMALY>279.3903</MEAN_ANOMALY></meanElements><tleParameters><EPHEMERIS_TYPE>0</EPHEMERIS_TYPE><CLASSIFICATION_TYPE>U</CLASSIFICATION_TYPE><NORAD_CAT_ID>65149</NORAD_CAT_ID><ELEMENT_SET_NO>999</ELEMENT_SET_NO><REV_AT_EPOCH>313</REV_AT_EPOCH><BSTAR>-.54549E-1</BSTAR><MEAN_MOTION_DOT>-.881022E-2</MEAN_MOTION_DOT><MEAN_MOTION_DDOT>0</MEAN_MOTION_DDOT></tleParameters></data></segment></body></omm>

</ndm>
